CCSDS_OMM_VERS = 2.0
CREATION_DATE  = 
ORIGINATOR     = 

OBJECT_NAME    = KUIPER-00121
OBJECT_ID      = 2025-228D
CENTER_NAME    = EARTH
REF_FRAME      = TEME
TIME_SYSTEM    = UTC
MEAN_ELEMENT_THEORY = SGP/SGP4

EPOCH          = 2025-10-29T23:21:23.824224
MEAN_MOTION    = 15.34318534
ECCENTRICITY   = .00055292
INCLINATION    = 51.8795
RA_OF_ASC_NODE = 231.4671
ARG_OF_PERICENTER = 204.8639
MEAN_ANOMALY   = 155.2080

EPHEMERIS_TYPE = 0
CLASSIFICATION_TYPE = U
NORAD_CAT_ID   = 65950
ELEMENT_SET_NO = 999
REV_AT_EPOCH   = 369
BSTAR          = .11590354E-2
MEAN_MOTION_DOT = .38935E-3
MEAN_MOTION_DDOT = 0

CCSDS_OMM_VERS = 2.0
CREATION_DATE  = 
ORIGINATOR     = 

OBJECT_NAME    = KUIPER-00122
OBJECT_ID      = 2025-228E
CENTER_NAME    = EARTH
REF_FRAME      = TEME
TIME_SYSTEM    = UTC
MEAN_ELEMENT_THEORY = SGP/SGP4

EPOCH          = 2025-10-29T21:49:24.017664
MEAN_MOTION    = 15.34176440
ECCENTRICITY   = .00059968
INCLINATION    = 51.8786
RA_OF_ASC_NODE = 231.7819
ARG_OF_PERICENTER = 213.0169
MEAN_ANOMALY   = 147.0443

EPHEMERIS_TYPE = 0
CLASSIFICATION_TYPE = U
NORAD_CAT_ID   = 65951
ELEMENT_SET_NO = 999
REV_AT_EPOCH   = 368
BSTAR          = .12487038E-2
MEAN_MOTION_DOT = .41806E-3
MEAN_MOTION_DDOT = 0

CCSDS_OMM_VERS = 2.0
CREATION_DATE  = 
ORIGINATOR     = 

OBJECT_NAME    = KUIPER-00123
OBJECT_ID      = 2025-228F
CENTER_NAME    = EARTH
REF_FRAME      = TEME
TIME_SYSTEM    = UTC
MEAN_ELEMENT_THEORY = SGP/SGP4

EPOCH          = 2025-10-29T23:21:44.389152
MEAN_MOTION    = 15.34240753
ECCENTRICITY   = .00054287
INCLINATION    = 51.8782
RA_OF_ASC_NODE = 231.4604
ARG_OF_PERICENTER = 199.5247
MEAN_ANOMALY   = 160.5531

EPHEMERIS_TYPE = 0
CLASSIFICATION_TYPE = U
NORAD_CAT_ID   = 65952
ELEMENT_SET_NO = 999
REV_AT_EPOCH   = 369
BSTAR          = .10104713E-2
MEAN_MOTION_DOT = .33788E-3
MEAN_MOTION_DDOT = 0

CCSDS_OMM_VERS = 2.0
CREATION_DATE  = 
ORIGINATOR     = 

OBJECT_NAME    = KUIPER-00124
OBJECT_ID      = 2025-228G
CENTER_NAME    = EARTH
REF_FRAME      = TEME
TIME_SYSTEM    = UTC
MEAN_ELEMENT_THEORY = SGP/SGP4

EPOCH          = 2025-10-29T23:23:54.344256
MEAN_MOTION    = 15.34136939
ECCENTRICITY   = .00053981
INCLINATION    = 51.8795
RA_OF_ASC_NODE = 231.4763
ARG_OF_PERICENTER = 215.0512
MEAN_ANOMALY   = 145.0118

EPHEMERIS_TYPE = 0
CLASSIFICATION_TYPE = U
NORAD_CAT_ID   = 65953
ELEMENT_SET_NO = 999
REV_AT_EPOCH   = 369
BSTAR          = .12211186E-2
MEAN_MOTION_DOT = .40813E-3
MEAN_MOTION_DDOT = 0

CCSDS_OMM_VERS = 2.0
CREATION_DATE  = 
ORIGINATOR     = 

OBJECT_NAME    = KUIPER-00125
OBJECT_ID      = 2025-228H
CENTER_NAME    = EARTH
REF_FRAME      = TEME
TIME_SYSTEM    = UTC
MEAN_ELEMENT_THEORY = SGP/SGP4

EPOCH          = 2025-10-29T23:17:41.242272
MEAN_MOTION    = 15.34535869
ECCENTRICITY   = .00056526
INCLINATION    = 51.8781
RA_OF_ASC_NODE = 231.4423
ARG_OF_PERICENTER = 196.1486
MEAN_ANOMALY   = 163.9320

EPHEMERIS_TYPE = 0
CLASSIFICATION_TYPE = U
NORAD_CAT_ID   = 65954
ELEMENT_SET_NO = 999
REV_AT_EPOCH   = 369
BSTAR          = .60489459E-3
MEAN_MOTION_DOT = .20229E-3
MEAN_MOTION_DDOT = 0

CCSDS_OMM_VERS = 2.0
CREATION_DATE  = 
ORIGINATOR     = 

OBJECT_NAME    = KUIPER-00126
OBJECT_ID      = 2025-228J
CENTER_NAME    = EARTH
REF_FRAME      = TEME
TIME_SYSTEM    = UTC
MEAN_ELEMENT_THEORY = SGP/SGP4

EPOCH          = 2025-10-29T23:22:15.842208
MEAN_MOTION    = 15.34284786
ECCENTRICITY   = .00059158
INCLINATION    = 51.8787
RA_OF_ASC_NODE = 231.4668
ARG_OF_PERICENTER = 209.6114
MEAN_ANOMALY   = 150.4537

EPHEMERIS_TYPE = 0
CLASSIFICATION_TYPE = U
NORAD_CAT_ID   = 65955
ELEMENT_SET_NO = 999
REV_AT_EPOCH   = 369
BSTAR          = .14516567E-2
MEAN_MOTION_DOT = .48877E-3
MEAN_MOTION_DDOT = 0

CCSDS_OMM_VERS = 2.0
CREATION_DATE  = 
ORIGINATOR     = 

OBJECT_NAME    = KUIPER-00127
OBJECT_ID      = 2025-228K
CENTER_NAME    = EARTH
REF_FRAME      = TEME
TIME_SYSTEM    = UTC
MEAN_ELEMENT_THEORY = SGP/SGP4

EPOCH          = 2025-10-29T21:39:06.916896
MEAN_MOTION    = 15.34864291
ECCENTRICITY   = .00061662
INCLINATION    = 51.8785
RA_OF_ASC_NODE = 231.7372
ARG_OF_PERICENTER = 187.8595
MEAN_ANOMALY   = 172.2295

EPHEMERIS_TYPE = 0
CLASSIFICATION_TYPE = U
NORAD_CAT_ID   = 65956
ELEMENT_SET_NO = 999
REV_AT_EPOCH   = 368
BSTAR          = .12197446E-2
MEAN_MOTION_DOT = .41737E-3
MEAN_MOTION_DDOT = 0

CCSDS_OMM_VERS = 2.0
CREATION_DATE  = 
ORIGINATOR     = 

OBJECT_NAME    = KUIPER-00128
OBJECT_ID      = 2025-228L
CENTER_NAME    = EARTH
REF_FRAME      = TEME
TIME_SYSTEM    = UTC
MEAN_ELEMENT_THEORY = SGP/SGP4

EPOCH          = 2025-10-29T21:42:24.046272
MEAN_MOTION    = 15.34648645
ECCENTRICITY   = .00058095
INCLINATION    = 51.8791
RA_OF_ASC_NODE = 231.7554
ARG_OF_PERICENTER = 192.0109
MEAN_ANOMALY   = 168.0739

EPHEMERIS_TYPE = 0
CLASSIFICATION_TYPE = U
NORAD_CAT_ID   = 65957
ELEMENT_SET_NO = 999
REV_AT_EPOCH   = 368
BSTAR          = .11224235E-2
MEAN_MOTION_DOT = .38091E-3
MEAN_MOTION_DDOT = 0

CCSDS_OMM_VERS = 2.0
CREATION_DATE  = 
ORIGINATOR     = 

OBJECT_NAME    = KUIPER-00129
OBJECT_ID      = 2025-228M
CENTER_NAME    = EARTH
REF_FRAME      = TEME
TIME_SYSTEM    = UTC
MEAN_ELEMENT_THEORY = SGP/SGP4

EPOCH          = 2025-10-29T21:41:47.552640
MEAN_MOTION    = 15.34683626
ECCENTRICITY   = .00053178
INCLINATION    = 51.8783
RA_OF_ASC_NODE = 231.7520
ARG_OF_PERICENTER = 193.8226
MEAN_ANOMALY   = 166.2614

EPHEMERIS_TYPE = 0
CLASSIFICATION_TYPE = U
NORAD_CAT_ID   = 65958
ELEMENT_SET_NO = 999
REV_AT_EPOCH   = 368
BSTAR          = .11918286E-2
MEAN_MOTION_DOT = .40526E-3
MEAN_MOTION_DDOT = 0

CCSDS_OMM_VERS = 2.0
CREATION_DATE  = 
ORIGINATOR     = 

OBJECT_NAME    = KUIPER-00130
OBJECT_ID      = 2025-228N
CENTER_NAME    = EARTH
REF_FRAME      = TEME
TIME_SYSTEM    = UTC
MEAN_ELEMENT_THEORY = SGP/SGP4

EPOCH          = 2025-10-29T23:19:11.626176
MEAN_MOTION    = 15.34473611
ECCENTRICITY   = .00053115
INCLINATION    = 51.8783
RA_OF_ASC_NODE = 231.4492
ARG_OF_PERICENTER = 201.9216
MEAN_ANOMALY   = 158.1543

EPHEMERIS_TYPE = 0
CLASSIFICATION_TYPE = U
NORAD_CAT_ID   = 65959
ELEMENT_SET_NO = 999
REV_AT_EPOCH   = 369
BSTAR          = .11222209E-2
MEAN_MOTION_DOT = .37868E-3
MEAN_MOTION_DDOT = 0

CCSDS_OMM_VERS = 2.0
CREATION_DATE  = 
ORIGINATOR     = 

OBJECT_NAME    = KUIPER-00134
OBJECT_ID      = 2025-228P
CENTER_NAME    = EARTH
REF_FRAME      = TEME
TIME_SYSTEM    = UTC
MEAN_ELEMENT_THEORY = SGP/SGP4

EPOCH          = 2025-10-29T23:20:43.164384
MEAN_MOTION    = 15.34365407
ECCENTRICITY   = .00051627
INCLINATION    = 51.8782
RA_OF_ASC_NODE = 231.4557
ARG_OF_PERICENTER = 206.6680
MEAN_ANOMALY   = 153.4041

EPHEMERIS_TYPE = 0
CLASSIFICATION_TYPE = U
NORAD_CAT_ID   = 65960
ELEMENT_SET_NO = 999
REV_AT_EPOCH   = 369
BSTAR          = .11428961E-2
MEAN_MOTION_DOT = .38441E-3
MEAN_MOTION_DDOT = 0

CCSDS_OMM_VERS = 2.0
CREATION_DATE  = 
ORIGINATOR     = 

OBJECT_NAME    = KUIPER-00135
OBJECT_ID      = 2025-228Q
CENTER_NAME    = EARTH
REF_FRAME      = TEME
TIME_SYSTEM    = UTC
MEAN_ELEMENT_THEORY = SGP/SGP4

EPOCH          = 2025-10-29T23:20:09.475296
MEAN_MOTION    = 15.34356406
ECCENTRICITY   = .00051011
INCLINATION    = 51.8798
RA_OF_ASC_NODE = 231.4606
ARG_OF_PERICENTER = 194.3004
MEAN_ANOMALY   = 165.7837

EPHEMERIS_TYPE = 0
CLASSIFICATION_TYPE = U
NORAD_CAT_ID   = 65961
ELEMENT_SET_NO = 999
REV_AT_EPOCH   = 369
BSTAR          = .91013247E-3
MEAN_MOTION_DOT = .30493E-3
MEAN_MOTION_DDOT = 0

